[{"OBJECT_NAME":"STARLINK-31508","OBJECT_ID":"2024-071V","EPOCH":"2026-03-09T04:24:53.648064","MEAN_MOTION":15.27573533,"ECCENTRICITY":0.00015887,"INCLINATION":43,"RA_OF_ASC_NODE":342.998,"ARG_OF_PERICENTER":245.9634,"MEAN_ANOMALY":114.1051,"EPHEMERIS_TYPE":0,"CLASSIFICATION_TYPE":"U","NORAD_CAT_ID":59503,"ELEMENT_SET_NO":999,"REV_AT_EPOCH":10812,"BSTAR":-0.00013500022,"MEAN_MOTION_DOT":-3.974e-5,"MEAN_MOTION_DDOT":0},{"OBJECT_NAME":"OBJECT C","OBJECT_ID":"2024-085C","EPOCH":"2026-03-09T22:49:58.289376","MEAN_MOTION":15.31893958,"ECCENTRICITY":0.00283931,"INCLINATION":97.3357,"RA_OF_ASC_NODE":145.6975,"ARG_OF_PERICENTER":37.3887,"MEAN_ANOMALY":322.9323,"EPHEMERIS_TYPE":0,"CLASSIFICATION_TYPE":"U","NORAD_CAT_ID":59679,"ELEMENT_SET_NO":999,"REV_AT_EPOCH":10244,"BSTAR":0.00039740634,"MEAN_MOTION_DOT":0.0001232,"MEAN_MOTION_DDOT":0}]
